start=new Date('2022-08-12T00:00:00.000Z').valueOf();
sats=[{"OBJECT_NAME":"STARLINK-1992","ELEMENT_SET_NO":"999","PERIOD":"95.592","DECAY_DATE":null,"COUNTRY_CODE":"US","APOAPSIS":"548.154","SEMIMAJOR_AXIS":"6925.359","ECCENTRICITY":"0.00013430","TLE_LINE2":"2 47632  53.0542  81.2153 0001343  76.6416 283.4723 15.06396486 84395","MEAN_MOTION_DDOT":"0.0000000000000","REF_FRAME":"TEME","OBJECT_ID":"2021-012N","OBJECT_TYPE":"PAYLOAD","CENTER_NAME":"EARTH","MEAN_MOTION_DOT":"-0.00002974","MEAN_MOTION":"15.06396486","ARG_OF_PERICENTER":"76.6416","SITE":"AFETR","EPHEMERIS_TYPE":"0","GP_ID":"210026730","EPOCH":"2022-08-11T07:18:57.616128","TLE_LINE1":"1 47632U 21012N   22223.30483352 -.00002974  00000-0 -18087-3 0  9998","RA_OF_ASC_NODE":"81.2153","CLASSIFICATION_TYPE":"U","RCS_SIZE":"LARGE","FILE":"3534319","BSTAR":"-0.00018087000000","TIME_SYSTEM":"UTC","MEAN_ELEMENT_THEORY":"SGP4","NORAD_CAT_ID":"47632","INCLINATION":"53.0542","MEAN_ANOMALY":"283.4723","PERIAPSIS":"546.294","LAUNCH_DATE":"2021-02-16","REV_AT_EPOCH":"8439"},{"ECCENTRICITY":"0.00014810","SEMIMAJOR_AXIS":"6925.362","OBJECT_ID":"2021-012P","MEAN_MOTION_DDOT":"0.0000000000000","REF_FRAME":"TEME","TLE_LINE2":"2 47633  53.0557 179.1286 0001481  64.3557 295.7585 15.06395528 82474","ELEMENT_SET_NO":"999","OBJECT_NAME":"STARLINK-2009","APOAPSIS":"548.253","COUNTRY_CODE":"US","DECAY_DATE":null,"PERIOD":"95.592","NORAD_CAT_ID":"47633","INCLINATION":"53.0557","MEAN_ANOMALY":"295.7585","MEAN_ELEMENT_THEORY":"SGP4","TIME_SYSTEM":"UTC","FILE":"3534017","RCS_SIZE":"LARGE","BSTAR":"0.00003431400000","RA_OF_ASC_NODE":"179.1286","CLASSIFICATION_TYPE":"U","REV_AT_EPOCH":"8247","LAUNCH_DATE":"2021-02-16","PERIAPSIS":"546.202","SITE":"AFETR","EPHEMERIS_TYPE":"0","ARG_OF_PERICENTER":"64.3557","MEAN_MOTION":"15.06395528","MEAN_MOTION_DOT":"0.00000230","OBJECT_TYPE":"PAYLOAD","CENTER_NAME":"EARTH","TLE_LINE1":"1 47633U 21012P   22222.66025610  .00000230  00000-0  34314-4 0  9999","GP_ID":"210000417","EPOCH":"2022-08-10T15:50:46.127040"},{"REF_FRAME":"TEME","MEAN_MOTION_DDOT":"0.0000000000000","TLE_LINE2":"2 47634  53.0545 173.8532 0001481  68.3959 291.7188 15.06383714 82645","OBJECT_ID":"2021-012Q","SEMIMAJOR_AXIS":"6925.398","ECCENTRICITY":"0.00014810","DECAY_DATE":null,"PERIOD":"95.593","APOAPSIS":"548.289","COUNTRY_CODE":"US","OBJECT_NAME":"STARLINK-2010","ELEMENT_SET_NO":"999","LAUNCH_DATE":"2021-02-16","REV_AT_EPOCH":"8264","PERIAPSIS":"546.238","RCS_SIZE":"LARGE","FILE":"3534775","BSTAR":"0.00005410000000","CLASSIFICATION_TYPE":"U","RA_OF_ASC_NODE":"173.8532","MEAN_ANOMALY":"291.7188","NORAD_CAT_ID":"47634","INCLINATION":"53.0545","TIME_SYSTEM":"UTC","MEAN_ELEMENT_THEORY":"SGP4","EPOCH":"2022-08-11T19:54:40.852800","GP_ID":"210041939","TLE_LINE1":"1 47634U 21012Q   22223.82963950  .00000524  00000-0  54100-4 0  9998","MEAN_MOTION":"15.06383714","MEAN_MOTION_DOT":"0.00000524","OBJECT_TYPE":"PAYLOAD","CENTER_NAME":"EARTH","EPHEMERIS_TYPE":"0","SITE":"AFETR","ARG_OF_PERICENTER":"68.3959"},{"ARG_OF_PERICENTER":"85.0025","SITE":"AFETR","EPHEMERIS_TYPE":"0","OBJECT_TYPE":"PAYLOAD","CENTER_NAME":"EARTH","MEAN_MOTION_DOT":"-0.00002200","MEAN_MOTION":"15.06377638","TLE_LINE1":"1 47635U 21012R   22223.32422137 -.00002200  00000-0 -12893-3 0  9998","GP_ID":"210026981","EPOCH":"2022-08-11T07:46:52.726368","MEAN_ELEMENT_THEORY":"SGP4","TIME_SYSTEM":"UTC","INCLINATION":"53.0582","NORAD_CAT_ID":"47635","MEAN_ANOMALY":"275.1126","RA_OF_ASC_NODE":"81.1227","CLASSIFICATION_TYPE":"U","FILE":"3534319","RCS_SIZE":"LARGE","BSTAR":"-0.00012893000000","PERIAPSIS":"546.299","LAUNCH_DATE":"2021-02-16","REV_AT_EPOCH":"8441","ELEMENT_SET_NO":"999","OBJECT_NAME":"STARLINK-2012","COUNTRY_CODE":"US","APOAPSIS":"548.265","PERIOD":"95.594","DECAY_DATE":null,"ECCENTRICITY":"0.00014190","SEMIMAJOR_AXIS":"6925.417","OBJECT_ID":"2021-012R","TLE_LINE2":"2 47635  53.0582  81.1227 0001419  85.0025 275.1126 15.06377638 84413","MEAN_MOTION_DDOT":"0.0000000000000","REF_FRAME":"TEME"},{"GP_ID":"210033230","EPOCH":"2022-08-11T05:16:14.493216","TLE_LINE1":"1 47636U 21012S   22223.21961219 -.00000387  00000-0 -70781-5 0  9992","OBJECT_TYPE":"PAYLOAD","MEAN_MOTION_DOT":"-0.00000387","CENTER_NAME":"EARTH","MEAN_MOTION":"15.06395464","ARG_OF_PERICENTER":"86.6510","SITE":"AFETR","EPHEMERIS_TYPE":"0","PERIAPSIS":"546.313","LAUNCH_DATE":"2021-02-16","REV_AT_EPOCH":"8283","RA_OF_ASC_NODE":"156.5987","CLASSIFICATION_TYPE":"U","BSTAR":"-0.00000707810000","FILE":"3534414","RCS_SIZE":"LARGE","MEAN_ELEMENT_THEORY":"SGP4","TIME_SYSTEM":"UTC","NORAD_CAT_ID":"47636","INCLINATION":"53.0545","MEAN_ANOMALY":"273.4630","PERIOD":"95.592","DECAY_DATE":null,"COUNTRY_CODE":"US","APOAPSIS":"548.142","OBJECT_NAME":"STARLINK-2013","ELEMENT_SET_NO":"999","TLE_LINE2":"2 47636  53.0545 156.5987 0001320  86.6510 273.4630 15.06395464 82832","MEAN_MOTION_DDOT":"0.0000000000000","REF_FRAME":"TEME","OBJECT_ID":"2021-012S","SEMIMAJOR_AXIS":"6925.362","ECCENTRICITY":"0.00013200"},{"SEMIMAJOR_AXIS":"6925.405","ECCENTRICITY":"0.00016570","TLE_LINE2":"2 47637  53.0540 156.7312 0001657  64.5057 295.6103 15.06381470 82839","MEAN_MOTION_DDOT":"0.0000000000000","REF_FRAME":"TEME","OBJECT_ID":"2021-012T","OBJECT_NAME":"STARLINK-2014","ELEMENT_SET_NO":"999","DECAY_DATE":null,"PERIOD":"95.593","COUNTRY_CODE":"US","APOAPSIS":"548.418","RA_OF_ASC_NODE":"156.7312","CLASSIFICATION_TYPE":"U","RCS_SIZE":"LARGE","FILE":"3534415","BSTAR":"-0.00006324900000","MEAN_ELEMENT_THEORY":"SGP4","TIME_SYSTEM":"UTC","NORAD_CAT_ID":"47637","INCLINATION":"53.0540","MEAN_ANOMALY":"295.6103","PERIAPSIS":"546.123","LAUNCH_DATE":"2021-02-16","REV_AT_EPOCH":"8283","CENTER_NAME":"EARTH","OBJECT_TYPE":"PAYLOAD","MEAN_MOTION_DOT":"-0.00001223","MEAN_MOTION":"15.06381470","ARG_OF_PERICENTER":"64.5057","SITE":"AFETR","EPHEMERIS_TYPE":"0","GP_ID":"210033241","EPOCH":"2022-08-11T04:33:48.037248","TLE_LINE1":"1 47637U 21012T   22223.19013932 -.00001223  00000-0 -63249-4 0  9990"},{"TLE_LINE2":"2 47638  53.0546  79.9374 0001297  88.9106 271.2032 15.06379902 83935","REF_FRAME":"TEME","MEAN_MOTION_DDOT":"0.0000000000000","OBJECT_ID":"2021-012U","SEMIMAJOR_AXIS":"6925.410","ECCENTRICITY":"0.00012970","DECAY_DATE":null,"PERIOD":"95.593","COUNTRY_CODE":"US","APOAPSIS":"548.173","OBJECT_NAME":"STARLINK-2015","ELEMENT_SET_NO":"999","PERIAPSIS":"546.377","LAUNCH_DATE":"2021-02-16","REV_AT_EPOCH":"8393","CLASSIFICATION_TYPE":"U","RA_OF_ASC_NODE":"79.9374","RCS_SIZE":"LARGE","FILE":"3534416","BSTAR":"0.00007571700000","MEAN_ELEMENT_THEORY":"SGP4","TIME_SYSTEM":"UTC","MEAN_ANOMALY":"271.2032","INCLINATION":"53.0546","NORAD_CAT_ID":"47638","EPOCH":"2022-08-11T14:03:43.289280","GP_ID":"210033552","TLE_LINE1":"1 47638U 21012U   22223.58591770  .00000846  00000-0  75717-4 0  9996","OBJECT_TYPE":"PAYLOAD","MEAN_MOTION_DOT":"0.00000846","CENTER_NAME":"EARTH","MEAN_MOTION":"15.06379902","ARG_OF_PERICENTER":"88.9106","EPHEMERIS_TYPE":"0","SITE":"AFETR"},{"OBJECT_ID":"2021-012V","TLE_LINE2":"2 47639  53.0555 156.2356 0001592  72.1566 287.9597 15.06389370 82847","REF_FRAME":"TEME","MEAN_MOTION_DDOT":"0.0000000000000","ECCENTRICITY":"0.00015920","SEMIMAJOR_AXIS":"6925.381","COUNTRY_CODE":"US","APOAPSIS":"548.349","DECAY_DATE":null,"PERIOD":"95.593","ELEMENT_SET_NO":"999","OBJECT_NAME":"STARLINK-2016","PERIAPSIS":"546.144","LAUNCH_DATE":"2021-02-16","REV_AT_EPOCH":"8284","TIME_SYSTEM":"UTC","MEAN_ELEMENT_THEORY":"SGP4","MEAN_ANOMALY":"287.9597","NORAD_CAT_ID":"47639","INCLINATION":"53.0555","CLASSIFICATION_TYPE":"U","RA_OF_ASC_NODE":"156.2356","FILE":"3534416","BSTAR":"-0.00016498000000","RCS_SIZE":"LARGE","TLE_LINE1":"1 47639U 21012V   22223.30070686 -.00002737  00000-0 -16498-3 0  9998","GP_ID":"210033260","EPOCH":"2022-08-11T07:13:01.072704","ARG_OF_PERICENTER":"72.1566","EPHEMERIS_TYPE":"0","SITE":"AFETR","CENTER_NAME":"EARTH","OBJECT_TYPE":"PAYLOAD","MEAN_MOTION_DOT":"-0.00002737","MEAN_MOTION":"15.06389370"},{"BSTAR":"-0.00005225900000","FILE":"3534319","RCS_SIZE":"LARGE","CLASSIFICATION_TYPE":"U","RA_OF_ASC_NODE":"176.8433","MEAN_ANOMALY":"293.3139","NORAD_CAT_ID":"47640","INCLINATION":"53.0544","TIME_SYSTEM":"UTC","MEAN_ELEMENT_THEORY":"SGP4","REV_AT_EPOCH":"8306","LAUNCH_DATE":"2021-02-16","PERIAPSIS":"546.077","MEAN_MOTION":"15.06395208","OBJECT_TYPE":"PAYLOAD","MEAN_MOTION_DOT":"-0.00001060","CENTER_NAME":"EARTH","EPHEMERIS_TYPE":"0","SITE":"AFETR","ARG_OF_PERICENTER":"66.8025","GP_ID":"210026731","EPOCH":"2022-08-11T03:53:58.392096","TLE_LINE1":"1 47640U 21012W   22223.16248139 -.00001060  00000-0 -52259-4 0  9998","SEMIMAJOR_AXIS":"6925.363","ECCENTRICITY":"0.00016630","REF_FRAME":"TEME","MEAN_MOTION_DDOT":"0.0000000000000","TLE_LINE2":"2 47640  53.0544 176.8433 0001663  66.8025 293.3139 15.06395208 83065","OBJECT_ID":"2021-012W","OBJECT_NAME":"STARLINK-2018","ELEMENT_SET_NO":"999","DECAY_DATE":null,"PERIOD":"95.592","APOAPSIS":"548.380","COUNTRY_CODE":"US"},{"MEAN_MOTION_DDOT":"0.0000000000000","REF_FRAME":"TEME","TLE_LINE2":"2 47641  53.0553  79.1313 0001278  89.9536 270.1600 15.06393707 83960","OBJECT_ID":"2021-012X","SEMIMAJOR_AXIS":"6925.368","ECCENTRICITY":"0.00012780","DECAY_DATE":null,"PERIOD":"95.593","APOAPSIS":"548.118","COUNTRY_CODE":"US","OBJECT_NAME":"STARLINK-2019","ELEMENT_SET_NO":"999","LAUNCH_DATE":"2021-02-16","REV_AT_EPOCH":"8396","PERIAPSIS":"546.348","BSTAR":"-0.00009093100000","FILE":"3534461","RCS_SIZE":"LARGE","RA_OF_ASC_NODE":"79.1313","CLASSIFICATION_TYPE":"U","INCLINATION":"53.0553","NORAD_CAT_ID":"47641","MEAN_ANOMALY":"270.1600","MEAN_ELEMENT_THEORY":"SGP4","TIME_SYSTEM":"UTC","GP_ID":"210034355","EPOCH":"2022-08-11T18:29:06.448992","TLE_LINE1":"1 47641U 21012X   22223.77021353 -.00001635  00000-0 -90931-4 0  9990","MEAN_MOTION":"15.06393707","MEAN_MOTION_DOT":"-0.00001635","OBJECT_TYPE":"PAYLOAD","CENTER_NAME":"EARTH","SITE":"AFETR","EPHEMERIS_TYPE":"0","ARG_OF_PERICENTER":"89.9536"}];
